{
  "type": "FeatureCollection",
  "features": [
    {
      "type": "Feature",
      "properties": {
        "norad_id": 33844,
        "name": "COSMOS 2251 DEB",
        "group": "cosmos-2251-debris",
        "lat": -60.27766960882665,
        "lon": 5.538768363368834,
        "alt_km": 802.320241051877,
        "timestamp": "2025-12-22T04:03:39.561334+00:00",
        "meta_object_name": "COSMOS 2251 DEB",
        "meta_object_id": "1993-036CM",
        "meta_epoch": "2025-12-21T09:59:44.729952",
        "meta_mean_motion": 14.3373237,
        "meta_eccentricity": 0.00471142,
        "meta_inclination": 74.0666,
        "meta_ra_of_asc_node": 36.9378,
        "meta_arg_of_pericenter": 56.0752,
        "meta_mean_anomaly": 316.3274,
        "meta_ephemeris_type": 0,
        "meta_classification_type": "U",
        "meta_norad_cat_id": 33844,
        "meta_element_set_no": 999,
        "meta_rev_at_epoch": 87850,
        "meta_bstar": 0.00027971479,
        "meta_mean_motion_dot": 7.61e-06,
        "meta_mean_motion_ddot": 0,
        "tle_line1": "1 33844U 93036CM  25355.41648993  .00000761  00000+0  27971-3 0  9999",
        "tle_line2": "2 33844  74.0666  36.9378 0047114  56.0752 316.3274 14.33732370878508"
      },
      "geometry": {
        "type": "Point",
        "coordinates": [
          5.538768363368834,
          -60.27766960882665
        ]
      }
    },
    {
      "type": "Feature",
      "properties": {
        "norad_id": 33848,
        "name": "COSMOS 2251 DEB",
        "group": "cosmos-2251-debris",
        "lat": 66.60056932334994,
        "lon": 118.66800253992535,
        "alt_km": 729.8579505100051,
        "timestamp": "2025-12-22T04:03:39.561343+00:00",
        "meta_object_name": "COSMOS 2251 DEB",
        "meta_object_id": "1993-036CR",
        "meta_epoch": "2025-12-21T16:45:18.960768",
        "meta_mean_motion": 14.44117482,
        "meta_eccentricity": 0.0041667,
        "meta_inclination": 74.0317,
        "meta_ra_of_asc_node": 340.9734,
        "meta_arg_of_pericenter": 34.1193,
        "meta_mean_anomaly": 144.6848,
        "meta_ephemeris_type": 0,
        "meta_classification_type": "U",
        "meta_norad_cat_id": 33848,
        "meta_element_set_no": 999,
        "meta_rev_at_epoch": 87960,
        "meta_bstar": 0.00087373,
        "meta_mean_motion_dot": 3e-05,
        "meta_mean_motion_ddot": 0,
        "tle_line1": "1 33848U 93036CR  25355.69813612  .00003000  00000+0  87373-3 0  9996",
        "tle_line2": "2 33848  74.0317 340.9734 0041667  34.1193 144.6848 14.44117482879606"
      },
      "geometry": {
        "type": "Point",
        "coordinates": [
          118.66800253992535,
          66.60056932334994
        ]
      }
    },
    {
      "type": "Feature",
      "properties": {
        "norad_id": 33892,
        "name": "COSMOS 2251 DEB",
        "group": "cosmos-2251-debris",
        "lat": 44.530031578979134,
        "lon": 101.4708230952459,
        "alt_km": 777.8358474888528,
        "timestamp": "2025-12-22T04:03:39.561354+00:00",
        "meta_object_name": "COSMOS 2251 DEB",
        "meta_object_id": "1993-036CV",
        "meta_epoch": "2025-12-21T16:43:45.901920",
        "meta_mean_motion": 14.23366208,
        "meta_eccentricity": 0.0112324,
        "meta_inclination": 73.8025,
        "meta_ra_of_asc_node": 85.7171,
        "meta_arg_of_pericenter": 115.2021,
        "meta_mean_anomaly": 34.5637,
        "meta_ephemeris_type": 0,
        "meta_classification_type": "U",
        "meta_norad_cat_id": 33892,
        "meta_element_set_no": 999,
        "meta_rev_at_epoch": 87082,
        "meta_bstar": 0.00050264,
        "meta_mean_motion_dot": 1.191e-05,
        "meta_mean_motion_ddot": 0,
        "tle_line1": "1 33892U 93036CV  25355.69705905  .00001191  00000+0  50264-3 0  9998",
        "tle_line2": "2 33892  73.8025  85.7171 0112324 115.2021  34.5637 14.23366208870824"
      },
      "geometry": {
        "type": "Point",
        "coordinates": [
          101.4708230952459,
          44.530031578979134
        ]
      }
    },
    {
      "type": "Feature",
      "properties": {
        "norad_id": 33894,
        "name": "COSMOS 2251 DEB",
        "group": "cosmos-2251-debris",
        "lat": 72.78897774164233,
        "lon": 84.35289543353944,
        "alt_km": 1570.7348703598363,
        "timestamp": "2025-12-22T04:03:39.561364+00:00",
        "meta_object_name": "COSMOS 2251 DEB",
        "meta_object_id": "1993-036CX",
        "meta_epoch": "2025-12-21T16:37:48.061632",
        "meta_mean_motion": 13.21322128,
        "meta_eccentricity": 0.0578966,
        "meta_inclination": 73.7665,
        "meta_ra_of_asc_node": 335.2246,
        "meta_arg_of_pericenter": 253.4651,
        "meta_mean_anomaly": 100.2107,
        "meta_ephemeris_type": 0,
        "meta_classification_type": "U",
        "meta_norad_cat_id": 33894,
        "meta_element_set_no": 999,
        "meta_rev_at_epoch": 80826,
        "meta_bstar": 0.00065479,
        "meta_mean_motion_dot": 6.27e-06,
        "meta_mean_motion_ddot": 0,
        "tle_line1": "1 33894U 93036CX  25355.69291738  .00000627  00000+0  65479-3 0  9991",
        "tle_line2": "2 33894  73.7665 335.2246 0578966 253.4651 100.2107 13.21322128808265"
      },
      "geometry": {
        "type": "Point",
        "coordinates": [
          84.35289543353944,
          72.78897774164233
        ]
      }
    },
    {
      "type": "Feature",
      "properties": {
        "norad_id": 33896,
        "name": "COSMOS 2251 DEB",
        "group": "cosmos-2251-debris",
        "lat": -27.129570972311843,
        "lon": 130.9789668986934,
        "alt_km": 746.7667325404809,
        "timestamp": "2025-12-22T04:03:39.561374+00:00",
        "meta_object_name": "COSMOS 2251 DEB",
        "meta_object_id": "1993-036CZ",
        "meta_epoch": "2025-12-21T20:29:57.693408",
        "meta_mean_motion": 14.19057536,
        "meta_eccentricity": 0.0126945,
        "meta_inclination": 73.7664,
        "meta_ra_of_asc_node": 140.136,
        "meta_arg_of_pericenter": 314.3655,
        "meta_mean_anomaly": 208.0036,
        "meta_ephemeris_type": 0,
        "meta_classification_type": "U",
        "meta_norad_cat_id": 33896,
        "meta_element_set_no": 999,
        "meta_rev_at_epoch": 86869,
        "meta_bstar": 0.00038214,
        "meta_mean_motion_dot": 8.37e-06,
        "meta_mean_motion_ddot": 0,
        "tle_line1": "1 33896U 93036CZ  25355.85413997  .00000837  00000+0  38214-3 0  9994",
        "tle_line2": "2 33896  73.7664 140.1360 0126945 314.3655 208.0036 14.19057536868690"
      },
      "geometry": {
        "type": "Point",
        "coordinates": [
          130.9789668986934,
          -27.129570972311843
        ]
      }
    },
    {
      "type": "Feature",
      "properties": {
        "norad_id": 33899,
        "name": "COSMOS 2251 DEB",
        "group": "cosmos-2251-debris",
        "lat": -18.623076808236714,
        "lon": 62.187170840467786,
        "alt_km": 727.0862349662257,
        "timestamp": "2025-12-22T04:03:39.561384+00:00",
        "meta_object_name": "COSMOS 2251 DEB",
        "meta_object_id": "1993-036DC",
        "meta_epoch": "2025-12-21T15:41:44.336832",
        "meta_mean_motion": 14.61258772,
        "meta_eccentricity": 0.005627,
        "meta_inclination": 74.0538,
        "meta_ra_of_asc_node": 68.6999,
        "meta_arg_of_pericenter": 128.776,
        "meta_mean_anomaly": 23.0619,
        "meta_ephemeris_type": 0,
        "meta_classification_type": "U",
        "meta_norad_cat_id": 33899,
        "meta_element_set_no": 999,
        "meta_rev_at_epoch": 88969,
        "meta_bstar": 0.00059836,
        "meta_mean_motion_dot": 2.989e-05,
        "meta_mean_motion_ddot": 0,
        "tle_line1": "1 33899U 93036DC  25355.65398538  .00002989  00000+0  59836-3 0  9991",
        "tle_line2": "2 33899  74.0538  68.6999 0056270 128.7760  23.0619 14.61258772889693"
      },
      "geometry": {
        "type": "Point",
        "coordinates": [
          62.187170840467786,
          -18.623076808236714
        ]
      }
    },
    {
      "type": "Feature",
      "properties": {
        "norad_id": 33900,
        "name": "COSMOS 2251 DEB",
        "group": "cosmos-2251-debris",
        "lat": -71.446478022449,
        "lon": -76.73879117896686,
        "alt_km": 733.2838753969709,
        "timestamp": "2025-12-22T04:03:39.561394+00:00",
        "meta_object_name": "COSMOS 2251 DEB",
        "meta_object_id": "1993-036DD",
        "meta_epoch": "2025-12-21T18:49:29.607744",
        "meta_mean_motion": 14.58375971,
        "meta_eccentricity": 0.0046451,
        "meta_inclination": 74.0183,
        "meta_ra_of_asc_node": 342.6295,
        "meta_arg_of_pericenter": 132.0984,
        "meta_mean_anomaly": 287.5471,
        "meta_ephemeris_type": 0,
        "meta_classification_type": "U",
        "meta_norad_cat_id": 33900,
        "meta_element_set_no": 999,
        "meta_rev_at_epoch": 89168,
        "meta_bstar": 0.00029545,
        "meta_mean_motion_dot": 1.359e-05,
        "meta_mean_motion_ddot": 0,
        "tle_line1": "1 33900U 93036DD  25355.78437046  .00001359  00000+0  29545-3 0  9990",
        "tle_line2": "2 33900  74.0183 342.6295 0046451 132.0984 287.5471 14.58375971891684"
      },
      "geometry": {
        "type": "Point",
        "coordinates": [
          -76.73879117896686,
          -71.446478022449
        ]
      }
    }
  ]
}